NORAD_CAT_ID,OBJECT_NAME,OBJECT_TYPE,EPOCH,MEAN_MOTION,ECCENTRICITY,INCLINATION,RA_OF_ASC_NODE,ARG_OF_PERICENTER,MEAN_ANOMALY,BSTAR,MEAN_MOTION_DOT,MEAN_MOTION_DDOT,TLE_LINE0,TLE_LINE1,TLE_LINE2,SEMIMAJOR_AXIS,PERIOD,APOGEE,PERIGEE,DECAYED
53020.0,STARLINK-4287,PAYLOAD,2023-01-25 02:18:23,15.08853117,0.0001154,53.2156,159.9587,77.7823,282.3298,0.00026043,3.861e-05,0.0,0 STARLINK-4287,1 53020U 22076AL  23025.09610424  .00003861  00000-0  26043-3 0  9991,2 53020  53.2156 159.9587 0001154  77.7823 282.3298 15.08853117 31415,6917.84,95.437,540.504,538.9069999999999,0.0
53020.0,STARLINK-4287,PAYLOAD,2023-01-25 13:26:04,15.08868096,0.0001261,53.2147,157.8778,72.6461,287.4669,0.00051608,7.941e-05,0.0,0 STARLINK-4287,1 53020U 22076AL  23025.55977558  .00007941  00000-0  51608-3 0  9994,2 53020  53.2147 157.8778 0001261  72.6461 287.4669 15.08868096 31011,6917.795,95.436,540.5319999999999,538.7869999999999,0.0
53020.0,STARLINK-4287,PAYLOAD,2023-01-25 15:01:27,15.08868946,0.0001196,53.2146,157.5806,73.7387,286.3737,0.00092246,0.00014435,0.0,0 STARLINK-4287,1 53020U 22076AL  23025.62601680  .00014435  00000-0  92246-3 0  9991,2 53020  53.2146 157.5806 0001196  73.7387 286.3737 15.08868946 31495,6917.792,95.436,540.484,538.83,0.0
53020.0,STARLINK-4287,PAYLOAD,2023-01-26 08:30:42,15.08821368,0.000164,53.2158,154.3101,356.7534,3.3447,-0.00071219,-0.00011599,0.0,0 STARLINK-4287,1 53020U 22076AL  23026.35466266 -.00011599  00000-0 -71219-3 0  9998,2 53020  53.2158 154.3101 0001640 356.7534   3.3447 15.08821368 31608,6917.937,95.439,540.937,538.668,0.0
53020.0,STARLINK-4287,PAYLOAD,2023-01-26 13:16:52,15.08836166,0.0001152,53.2154,153.41899999999998,79.3466,280.7656,2.6551e-05,1.35e-06,0.0,0 STARLINK-4287,1 53020U 22076AL  23026.55338005  .00000135  00000-0  26551-4 0  9991,2 53020  53.2154 153.4190 0001152  79.3466 280.7656 15.08836166 31168,6917.892,95.438,540.554,538.96,0.0
53020.0,STARLINK-4287,PAYLOAD,2023-01-26 14:52:15,15.08822206,0.0001093,53.2149,153.1208,86.7958,273.3159,0.0015115999999999,0.00023839,0.0,0 STARLINK-4287,1 53020U 22076AL  23026.61962406  .00023839  00000-0  15116-2 0  9995,2 53020  53.2149 153.1208 0001093  86.7958 273.3159 15.08822206 31640,6917.935,95.439,540.556,539.044,0.0
53020.0,STARLINK-4287,PAYLOAD,2023-01-27 13:07:40,15.088289499999998,0.0001276,53.2148,148.9581,86.1193,273.9945,0.00067331,0.00010441,0.0,0 STARLINK-4287,1 53020U 22076AL  23027.54699726  .00010441  00000-0  67331-3 0  9992,2 53020  53.2148 148.9581 0001276  86.1193 273.9945 15.08828950 31318,6917.914000000001,95.438,540.6619999999999,538.896,0.0
53020.0,STARLINK-4287,PAYLOAD,2023-01-27 14:43:03,15.08830536,0.0001293,53.2152,148.6609,88.4201,271.6939,0.00067493,0.00010467,0.0,0 STARLINK-4287,1 53020U 22076AL  23027.61323744  .00010467  00000-0  67493-3 0  9991,2 53020  53.2152 148.6609 0001293  88.4201 271.6939 15.08830536 31798,6917.909000000001,95.438,540.669,538.88,0.0
53020.0,STARLINK-4287,PAYLOAD,2023-01-28 12:58:27,15.08845244,0.0001328,53.2154,144.4978,92.5323,267.5821,0.00056401,8.701e-05,0.0,0 STARLINK-4287,1 53020U 22076AL  23028.54059836  .00008701  00000-0  56401-3 0  9997,2 53020  53.2154 144.4978 0001328  92.5323 267.5821 15.08845244 31463,6917.864,95.437,540.648,538.811,0.0
53020.0,STARLINK-4287,PAYLOAD,2023-01-29 06:27:42,15.08840018,0.0001509,53.2163,141.228,97.1423,262.9741,0.00011822,1.594e-05,0.0,0 STARLINK-4287,1 53020U 22076AL  23029.26923945  .00001594  00000-0  11822-3 0  9999,2 53020  53.2163 141.2280 0001509  97.1423 262.9741 15.08840018 32046,6917.88,95.438,540.789,538.701,0.0
53020.0,STARLINK-4287,PAYLOAD,2023-01-29 12:49:15,15.08833139,0.0001602,53.2171,140.0369,109.4737,250.6428,5.5196e-05,5.9e-06,0.0,0 STARLINK-4287,1 53020U 22076AL  23029.53420294  .00000590  00000-0  55196-4 0  9996,2 53020  53.2171 140.0369 0001602 109.4737 250.6428 15.08833139 32085,6917.901,95.438,540.875,538.658,0.0
53020.0,STARLINK-4287,PAYLOAD,2023-01-30 11:04:38,15.08840453,0.000145,53.217,135.8741,101.0875,259.028,3.4456e-05,2.6e-06,0.0,0 STARLINK-4287,1 53020U 22076AL  23030.46156084  .00000260  00000-0  34456-4 0  9993,2 53020  53.2170 135.8741 0001450 101.0875 259.0280 15.08840453 31751,6917.879,95.438,540.747,538.741,0.0
53020.0,STARLINK-4287,PAYLOAD,2023-01-30 23:47:43,15.08842604,0.0001376,53.2169,133.4964,93.1595,266.9555,0.00014037,1.947e-05,0.0,0 STARLINK-4287,1 53020U 22076AL  23030.99148041  .00001947  00000-0  14037-3 0  9990,2 53020  53.2169 133.4964 0001376  93.1595 266.9555 15.08842604 32301,6917.872,95.437,540.689,538.786,0.0
53020.0,STARLINK-4287,PAYLOAD,2023-01-31 12:30:49,15.08839806,0.000114,53.2172,131.1165,85.0612,275.051,0.00013977,1.937e-05,0.0,0 STARLINK-4287,1 53020U 22076AL  23031.52140401  .00001937  00000-0  13977-3 0  9993,2 53020  53.2172 131.1165 0001140  85.0612 275.0510 15.08839806 31910,6917.881,95.438,540.535,538.957,0.0
53020.0,STARLINK-4287,PAYLOAD,2023-01-31 14:06:12,15.08843064,0.0001305,53.2167,130.8179,93.4424,266.6717,0.00015785,2.225e-05,0.0,0 STARLINK-4287,1 53020U 22076AL  23031.58764142  .00002225  00000-0  15785-3 0  9993,2 53020  53.2167 130.8179 0001305  93.4424 266.6717 15.08843064 31929,6917.871,95.437,540.639,538.833,0.0
53020.0,STARLINK-4287,PAYLOAD,2023-02-01 06:00:03,15.08841776,0.0001357,53.2157,127.8456,86.3429,273.7719,7.5169e-05,9.09e-06,0.0,0 STARLINK-4287,1 53020U 22076AL  23032.25004125  .00000909  00000-0  75169-4 0  9996,2 53020  53.2157 127.8456 0001357  86.3429 273.7719 15.08841776 32497,6917.875,95.437,540.679,538.801,0.0
53020.0,STARLINK-4287,PAYLOAD,2023-02-01 12:21:35,15.08859828,0.000124,53.2159,126.6558,89.1444,270.969,-0.00023865,-4.086e-05,0.0,0 STARLINK-4287,1 53020U 22076AL  23032.51499186 -.00004086  00000-0 -23865-3 0  9997,2 53020  53.2159 126.6558 0001240  89.1444 270.9690 15.08859828 32065,6917.82,95.436,540.543,538.827,0.0
53020.0,STARLINK-4287,PAYLOAD,2023-02-02 12:12:23,15.08837503,0.0001316,53.2168,122.1951,101.4211,258.6929,2.879e-05,1.7e-06,0.0,0 STARLINK-4287,1 53020U 22076AL  23033.50860510  .00000170  00000-0  28790-4 0  9991,2 53020  53.2168 122.1951 0001316 101.4211 258.6929 15.08837503 32218,6917.888,95.438,540.663,538.843,0.0
53020.0,STARLINK-4287,PAYLOAD,2023-02-02 23:20:05,15.08841271,0.0001234,53.2162,120.113,99.957,260.1561,1.8183e-05,2e-08,0.0,0 STARLINK-4287,1 53020U 22076AL  23033.97228280  .00000002  00000-0  18183-4 0  9993,2 53020  53.2162 120.1130 0001234  99.9570 260.1561 15.08841271 32753,6917.877,95.437,540.595,538.888,0.0
53020.0,STARLINK-4287,PAYLOAD,2023-02-03 04:06:15,15.08833345,0.0001255,53.2162,119.2209,99.4749,260.6385,1.6607e-05,-2.4e-07,0.0,0 STARLINK-4287,1 53020U 22076AL  23034.17100965 -.00000024  00000-0  16607-4 0  9999,2 53020  53.2162 119.2209 0001255  99.4749 260.6385 15.08833345 32780,6917.901,95.438,540.634,538.898,0.0
53020.0,STARLINK-4287,PAYLOAD,2023-02-03 10:27:47,15.08835895,0.0001275,53.2164,118.032,97.9554,262.1583,3.3778e-05,2.5e-06,0.0,0 STARLINK-4287,1 53020U 22076AL  23034.43596860  .00000250  00000-0  33778-4 0  9999,2 53020  53.2164 118.0320 0001275  97.9554 262.1583 15.08835895 32354,6917.893,95.438,540.64,538.876,0.0
53020.0,STARLINK-4287,PAYLOAD,2023-02-03 15:13:56,15.08842967,0.000132,53.2162,117.1388,107.8715,252.2421,5.3424e-05,5.63e-06,0.0,0 STARLINK-4287,1 53020U 22076AL  23034.63468325  .00000563  00000-0  53424-4 0  9992,2 53020  53.2162 117.1388 0001320 107.8715 252.2421 15.08842967 32851,6917.871,95.437,540.649,538.823,0.0
53020.0,STARLINK-4287,PAYLOAD,2023-02-04 10:18:33,15.0885053,0.0001429,53.2163,113.5698,98.6748,261.4406,6.7459e-05,7.86e-06,0.0,0 STARLINK-4287,1 53020U 22076AL  23035.42955906  .00000786  00000-0  67459-4 0  9996,2 53020  53.2163 113.5698 0001429  98.6748 261.4406 15.08850530 32501,6917.848,95.437,540.702,538.725,0.0
53020.0,STARLINK-4287,PAYLOAD,2023-02-04 13:29:21,15.08804869,0.0001568,53.2163,112.975,100.4244,259.6925,0.00086773,0.00013536,0.0,0 STARLINK-4287,1 53020U 22076AL  23035.56205465  .00013536  00000-0  86773-3 0  9995,2 53020  53.2163 112.9750 0001568 100.4244 259.6925 15.08804869 32992,6917.988,95.44,540.938,538.768,0.0
53020.0,STARLINK-4287,PAYLOAD,2023-02-05 05:23:12,15.08835896,0.0001284,53.2169,110.0006,114.8149,245.2976,4.4458e-05,4.2e-06,0.0,0 STARLINK-4287,1 53020U 22076AL  23036.22445139  .00000420  00000-0  44458-4 0  9996,2 53020  53.2169 110.0006 0001284 114.8149 245.2976 15.08835896 33092,6917.893,95.438,540.646,538.87,0.0
53020.0,STARLINK-4287,PAYLOAD,2023-02-05 13:20:07,15.08840593,0.0001365,53.2167,108.5134,118.0553,242.0578,7.6147e-05,9.24e-06,0.0,0 STARLINK-4287,1 53020U 22076AL  23036.55564806  .00000924  00000-0  76147-4 0  9994,2 53020  53.2167 108.5134 0001365 118.0553 242.0578 15.08840593 32675,6917.879,95.438,540.688,538.799,0.0
53020.0,STARLINK-4287,PAYLOAD,2023-02-05 21:17:03,15.08841775,0.000139,53.2178,107.027,94.4993,265.6158,6.8237e-05,7.98e-06,0.0,0 STARLINK-4287,1 53020U 22076AL  23036.88684880  .00000798  00000-0  68237-4 0  9995,2 53020  53.2178 107.0270 0001390  94.4993 265.6158 15.08841775 32729,6917.875,95.437,540.702,538.778,0.0
53020.0,STARLINK-4287,PAYLOAD,2023-02-06 10:00:08,15.08846307,0.0001394,53.2176,104.6525,107.2785,252.836,5.2711e-05,5.51e-06,0.0,0 STARLINK-4287,1 53020U 22076AL  23037.41676653  .00000551  00000-0  52711-4 0  9991,2 53020  53.2176 104.6525 0001394 107.2785 252.8360 15.08846307 33279,6917.861,95.437,540.69,538.762,0.0
53020.0,STARLINK-4287,PAYLOAD,2023-02-06 21:07:50,15.0884542,0.0001244,53.2144,102.5656,110.0737,250.0389,7.0344e-05,8.32e-06,0.0,0 STARLINK-4287,1 53020U 22076AL  23037.88044190  .00000832  00000-0  70344-4 0  9991,2 53020  53.2144 102.5656 0001244 110.0737 250.0389 15.08845420 32870,6917.864,95.437,540.589,538.868,0.0
53020.0,STARLINK-4287,PAYLOAD,2023-02-07 13:01:40,15.08864088,0.0001329,53.2161,99.594,116.9798,243.133,0.00037106,5.626e-05,0.0,0 STARLINK-4287,1 53020U 22076AL  23038.54283131  .00005626  00000-0  37106-3 0  9999,2 53020  53.2161  99.5940 0001329 116.9798 243.1330 15.08864088 33440,6917.807,95.436,540.591,538.752,0.0
